NORAD_CAT_ID,OBJECT_NAME,OBJECT_TYPE,EPOCH,MEAN_MOTION,ECCENTRICITY,INCLINATION,RA_OF_ASC_NODE,ARG_OF_PERICENTER,MEAN_ANOMALY,BSTAR,MEAN_MOTION_DOT,MEAN_MOTION_DDOT,TLE_LINE0,TLE_LINE1,TLE_LINE2,SEMIMAJOR_AXIS,PERIOD,APOGEE,PERIGEE,DECAYED
55961.0,STARLINK-5933,PAYLOAD,2024-04-12 13:43:34,14.98319914,0.0002907,70.0012,219.5278,265.0882,94.9946,0.00013706,1.542e-05,0.0,0 STARLINK-5933,1 55961U 23037AZ  24103.57193183  .00001542  00000-0  13706-3 0  9990,2 55961  70.0012 219.5278 0002907 265.0882  94.9946 14.98319914 60209,6950.224,96.108,574.11,570.069,0.0
55961.0,STARLINK-5933,PAYLOAD,2024-04-12 15:19:41,14.98382528,0.0003189,70.0012,219.3596,264.6199,95.4596,-0.00091166,-0.00010969,0.0,0 STARLINK-5933,1 55961U 23037AZ  24103.63867798 -.00010969  00000-0 -91166-3 0  9998,2 55961  70.0012 219.3596 0003189 264.6199  95.4596 14.98382528 60555,6950.03,96.104,574.112,569.679,0.0
55961.0,STARLINK-5933,PAYLOAD,2024-04-13 12:09:27,14.98329112,0.0002924,70.0013,217.1715,263.479,96.6036,3.7055e-05,3.49e-06,0.0,0 STARLINK-5933,1 55961U 23037AZ  24104.50656794  .00000349  00000-0  37055-4 0  9994,2 55961  70.0013 217.1715 0002924 263.4790  96.6036 14.98329112 60681,6950.196,96.107,574.093,570.028,0.0
55961.0,STARLINK-5933,PAYLOAD,2024-04-13 13:45:35,14.98329588,0.0002961,70.0012,217.0031,263.8361,96.246,1.8826e-05,1.32e-06,0.0,0 STARLINK-5933,1 55961U 23037AZ  24104.57332816  .00000132  00000-0  18826-4 0  9992,2 55961  70.0012 217.0031 0002961 263.8361  96.2460 14.98329588 60357,6950.194,96.107,574.117,570.001,0.0
55961.0,STARLINK-5933,PAYLOAD,2024-04-13 16:57:51,14.98333476,0.0002919,70.0013,216.6666,263.1969,96.8858,6.2085e-05,6.48e-06,0.0,0 STARLINK-5933,1 55961U 23037AZ  24104.70684421  .00000648  00000-0  62085-4 0  9997,2 55961  70.0013 216.6666 0002919 263.1969  96.8858 14.98333476 60377,6950.182,96.107,574.076,570.018,0.0
55961.0,STARLINK-5933,PAYLOAD,2024-04-14 12:11:28,14.98328386,0.0002799,70.0018,214.6477,260.9008,99.1835,-2.3101e-05,-3.69e-06,0.0,0 STARLINK-5933,1 55961U 23037AZ  24105.50796984 -.00000369  00000-0 -23101-4 0  9992,2 55961  70.0018 214.6477 0002799 260.9008  99.1835 14.98328386 60831,6950.198,96.107,574.008,570.118,0.0
55961.0,STARLINK-5933,PAYLOAD,2024-04-14 16:59:52,14.98327618,0.0002704,70.0021,214.1433,256.4329,103.6529,-2.4276e-06,-1.22e-06,0.0,0 STARLINK-5933,1 55961U 23037AZ  24105.70824982 -.00000122  00000-0 -24276-5 0  9996,2 55961  70.0021 214.1433 0002704 256.4329 103.6529 14.98327618 60528,6950.2,96.107,573.945,570.186,0.0
55961.0,STARLINK-5933,PAYLOAD,2024-04-15 12:13:29,14.98330525,0.0002822,70.002,212.1223,263.6013,96.4825,4.7033e-05,4.68e-06,0.0,0 STARLINK-5933,1 55961U 23037AZ  24106.50936589  .00000468  00000-0  47033-4 0  9998,2 55961  70.0020 212.1223 0002822 263.6013  96.4825 14.98330525 60982,6950.191,96.107,574.018,570.095,0.0
55961.0,STARLINK-5933,PAYLOAD,2024-04-15 13:49:37,14.98332164,0.0002795,70.0019,211.9538,262.9375,97.1466,6.1685e-05,6.43e-06,0.0,0 STARLINK-5933,1 55961U 23037AZ  24106.57612431  .00000643  00000-0  61685-4 0  9996,2 55961  70.0019 211.9538 0002795 262.9375  97.1466 14.98332164 60652,6950.186,96.107,573.994,570.109,0.0
55961.0,STARLINK-5933,PAYLOAD,2024-04-16 13:51:37,14.98333411,0.0002911,70.0017,209.4302,267.7374,92.3451,6.0735e-05,6.32e-06,0.0,0 STARLINK-5933,1 55961U 23037AZ  24107.57752254  .00000632  00000-0  60735-4 0  9998,2 55961  70.0017 209.4302 0002911 267.7374  92.3451 14.98333411 61145,6950.182,96.107,574.071,570.024,0.0
55961.0,STARLINK-5933,PAYLOAD,2024-04-16 17:03:53,14.98336461,0.0002554,70.0025,209.0934,261.5707,98.5163,0.0001191,1.329e-05,0.0,0 STARLINK-5933,1 55961U 23037AZ  24107.71103853  .00001329  00000-0  11910-3 0  9993,2 55961  70.0025 209.0934 0002554 261.5707  98.5163 14.98336461 60826,6950.173,96.107,573.813,570.263,0.0
55961.0,STARLINK-5933,PAYLOAD,2024-04-17 05:52:59,14.9831777,0.0003356,70.0015,207.7452,269.659,90.4185,-0.00016284,-2.035e-05,0.0,0 STARLINK-5933,1 55961U 23037AZ  24108.24513670 -.00002035  00000-0 -16284-3 0  9990,2 55961  70.0015 207.7452 0003356 269.6590  90.4185 14.98317770 61249,6950.231,96.108,574.428,569.763,0.0
55961.0,STARLINK-5933,PAYLOAD,2024-04-17 13:53:40,14.98322762,0.0003127,70.0006,206.9031,268.6481,91.432,-0.00015343,-1.923e-05,0.0,0 STARLINK-5933,1 55961U 23037AZ  24108.57893604 -.00001923  00000-0 -15343-3 0  9994,2 55961  70.0006 206.9031 0003127 268.6481  91.4320 14.98322762 60953,6950.215,96.107,574.254,569.907,0.0
55961.0,STARLINK-5933,PAYLOAD,2024-04-17 15:29:48,14.98323605,0.0003079,70.0007,206.7351,267.502,92.5786,-0.00013992,-1.762e-05,0.0,0 STARLINK-5933,1 55961U 23037AZ  24108.64569535 -.00001762  00000-0 -13992-3 0  9994,2 55961  70.0007 206.7351 0003079 267.5020  92.5786 14.98323605 61305,6950.213,96.107,574.218,569.938,0.0
55961.0,STARLINK-5933,PAYLOAD,2024-04-18 12:19:32,14.98326924,0.0002879,70.0013,204.5477,266.2071,93.8759,-9.3675e-06,-2.05e-06,0.0,0 STARLINK-5933,1 55961U 23037AZ  24109.51357347 -.00000205  00000-0 -93675-5 0  9996,2 55961  70.0013 204.5477 0002879 266.2071  93.8759 14.98326924 61431,6950.202,96.107,574.068,570.066,0.0
55961.0,STARLINK-5933,PAYLOAD,2024-04-18 13:55:40,14.98331917,0.000284,70.0012,204.3795,266.3947,93.6887,-3.5784e-05,-5.2e-06,0.0,0 STARLINK-5933,1 55961U 23037AZ  24109.58033106 -.00000520  00000-0 -35784-4 0  9993,2 55961  70.0012 204.3795 0002840 266.3947  93.6887 14.98331917 61104,6950.187,96.107,574.026,570.078,0.0
55961.0,STARLINK-5933,PAYLOAD,2024-04-18 15:31:48,14.98333839,0.0002766,70.0015,204.2116,264.1171,95.9673,-1.2619e-05,-2.44e-06,0.0,0 STARLINK-5933,1 55961U 23037AZ  24109.64708911 -.00000244  00000-0 -12619-4 0  9998,2 55961  70.0015 204.2116 0002766 264.1171  95.9673 14.98333839 61119,6950.181,96.107,573.968,570.124,0.0
55961.0,STARLINK-5933,PAYLOAD,2024-04-19 12:21:34,14.98317525,0.0002958,70.0022,202.0248,264.46,95.6221,0.00012637,1.415e-05,0.0,0 STARLINK-5933,1 55961U 23037AZ  24110.51497857  .00001415  00000-0  12637-3 0  9998,2 55961  70.0022 202.0248 0002958 264.4600  95.6221 14.98317525 61583,6950.231,96.108,574.152,570.041,0.0
55961.0,STARLINK-5933,PAYLOAD,2024-04-19 13:57:41,14.98322933,0.0002371,70.0023,201.8556,241.6804,118.4116,0.00015595,1.768e-05,0.0,0 STARLINK-5933,1 55961U 23037AZ  24110.58173397  .00001768  00000-0  15595-3 0  9992,2 55961  70.0023 201.8556 0002371 241.6804 118.4116 14.98322933 61255,6950.215,96.107,573.728,570.432,0.0
55961.0,STARLINK-5933,PAYLOAD,2024-04-19 15:33:49,14.98325021,0.0002767,70.0027,201.6879,250.5124,109.5736,0.00017923,2.046e-05,0.0,0 STARLINK-5933,1 55961U 23037AZ  24110.64849306  .00002046  00000-0  17923-3 0  9996,2 55961  70.0027 201.6879 0002767 250.5124 109.5736 14.98325021 61607,6950.208,96.107,573.996,570.15,0.0
55961.0,STARLINK-5933,PAYLOAD,2024-04-20 12:23:32,14.98351556,0.000253,70.0028,199.5016,254.756,105.332,0.00020311,2.333e-05,0.0,0 STARLINK-5933,1 55961U 23037AZ  24111.51634764  .00002333  00000-0  20311-3 0  9997,2 55961  70.0028 199.5016 0002530 254.7560 105.3320 14.98351556 61733,6950.126,96.106,573.75,570.233,0.0
55961.0,STARLINK-5933,PAYLOAD,2024-04-20 13:59:42,14.98324563,0.0002195,70.003,199.3339,272.0392,88.0515,-8.071e-05,-1.056e-05,0.0,0 STARLINK-5933,1 55961U 23037AZ  24111.58313229 -.00001056  00000-0 -80710-4 0  9997,2 55961  70.0030 199.3339 0002195 272.0392  88.0515 14.98324563 61400,6950.21,96.107,573.6,570.549,0.0
55961.0,STARLINK-5933,PAYLOAD,2024-04-20 15:35:52,14.9829696,0.0002217,70.0024,199.1642,279.6195,80.4713,-0.00038896,-4.727e-05,0.0,0 STARLINK-5933,1 55961U 23037AZ  24111.64991795 -.00004727  00000-0 -38896-3 0  9999,2 55961  70.0024 199.1642 0002217 279.6195  80.4713 14.98296960 61750,6950.295,96.109,573.701,570.619,0.0
55961.0,STARLINK-5933,PAYLOAD,2024-04-21 14:01:45,14.98312554,0.0001978,70.0039,196.8073,233.0261,127.0717,-0.00014477,-1.819e-05,0.0,0 STARLINK-5933,1 55961U 23037AZ  24112.58455018 -.00001819  00000-0 -14477-3 0  9994,2 55961  70.0039 196.8073 0001978 233.0261 127.0717 14.98312554 61557,6950.247,96.108,573.487,570.737,0.0
55961.0,STARLINK-5933,PAYLOAD,2024-04-21 15:37:52,14.98318145,0.000244,70.0025,196.6397,258.0087,102.0799,-6.2073e-05,-8.33e-06,0.0,0 STARLINK-5933,1 55961U 23037AZ  24112.65130426 -.00000833  00000-0 -62073-4 0  9996,2 55961  70.0025 196.6397 0002440 258.0087 102.0799 14.98318145 61901,6950.23,96.108,573.79,570.399,0.0
55961.0,STARLINK-5933,PAYLOAD,2024-04-22 09:15:19,14.98346391,0.0002789,70.0013,194.7827,280.4883,79.5962,-6.4675e-05,-8.65e-06,0.0,0 STARLINK-5933,1 55961U 23037AZ  24113.38564275 -.00000865  00000-0 -64675-4 0  9995,2 55961  70.0013 194.7827 0002789 280.4883  79.5962 14.98346391 62011,6950.142,96.106,573.946,570.069,0.0
55961.0,STARLINK-5933,PAYLOAD,2024-04-22 15:39:50,14.98357108,0.0002535,70.0025,194.1158,265.5774,94.5095,3.6231e-05,3.4e-06,0.0,0 STARLINK-5933,1 55961U 23037AZ  24113.65266987  .00000340  00000-0  36231-4 0  9997,2 55961  70.0025 194.1158 0002535 265.5774  94.5095 14.98357108 62053,6950.109,96.105,573.736,570.212,0.0
55961.0,STARLINK-5933,PAYLOAD,2024-04-23 12:29:37,14.98322209,0.0002868,70.0013,191.9254,261.3525,98.731,6.1197e-05,6.37e-06,0.0,0 STARLINK-5933,1 55961U 23037AZ  24114.52057362  .00000637  00000-0  61197-4 0  9997,2 55961  70.0013 191.9254 0002868 261.3525  98.7310 14.98322209 62183,6950.217,96.107,574.075,570.089,0.0
55961.0,STARLINK-5933,PAYLOAD,2024-04-23 14:05:45,14.98324231,0.0002856,70.0015,191.7583,257.5916,102.4924,5.9625e-05,6.18e-06,0.0,0 STARLINK-5933,1 55961U 23037AZ  24114.58733217  .00000618  00000-0  59625-4 0  9995,2 55961  70.0015 191.7583 0002856 257.5916 102.4924 14.98324231 61850,6950.211,96.107,574.061,570.091,0.0
55961.0,STARLINK-5933,PAYLOAD,2024-04-23 15:41:53,14.98323739,0.0002865,70.0015,191.589,260.565,99.5186,9.6128e-05,1.054e-05,0.0,0 STARLINK-5933,1 55961U 23037AZ  24114.65409189  .00001054  00000-0  96128-4 0  9995,2 55961  70.0015 191.5890 0002865 260.5650  99.5186 14.98323739 61867,6950.212,96.107,574.068,570.086,0.0
